start=new Date('2023-01-26T00:00:00.000Z').valueOf();
sats=[{"SITE":"AFETR","SEMIMAJOR_AXIS":"6925.370","MEAN_ANOMALY":"259.9477","ELEMENT_SET_NO":"999","LAUNCH_DATE":"2020-10-18","TIME_SYSTEM":"UTC","ARG_OF_PERICENTER":"100.1654","GP_ID":"223713426","OBJECT_TYPE":"PAYLOAD","ECCENTRICITY":"0.00012620","OBJECT_ID":"2020-073AV","FILE":"3761360","APOAPSIS":"548.109","COUNTRY_CODE":"US","DECAY_DATE":null,"EPOCH":"2023-01-25T19:55:40.240704","EPHEMERIS_TYPE":"0","PERIAPSIS":"546.362","MEAN_ELEMENT_THEORY":"SGP4","CLASSIFICATION_TYPE":"U","MEAN_MOTION_DDOT":"0.0000000000000","MEAN_MOTION":"15.06392842","PERIOD":"95.593","RA_OF_ASC_NODE":"314.1638","CENTER_NAME":"EARTH","OBJECT_NAME":"STARLINK-1815","INCLINATION":"53.0528","REF_FRAME":"TEME","RCS_SIZE":"LARGE","NORAD_CAT_ID":"46713","TLE_LINE1":"1 46713U 20073AV  23025.83032686 -.00000931  00000-0 -43638-4 0  9994","TLE_LINE2":"2 46713  53.0528 314.1638 0001262 100.1654 259.9477 15.06392842125472","MEAN_MOTION_DOT":"-0.00000931","BSTAR":"-0.00004363800000","REV_AT_EPOCH":"12547"},{"TLE_LINE1":"1 46714U 20073AW  23025.22308939  .00010363  00000-0  71328-3 0  9999","TLE_LINE2":"2 46714  53.0561 316.8780 0001363 113.6297 246.4835 15.06413699125384","MEAN_MOTION_DOT":"0.00010363","BSTAR":"0.00071328000000","REV_AT_EPOCH":"12538","RA_OF_ASC_NODE":"316.8780","CENTER_NAME":"EARTH","OBJECT_NAME":"STARLINK-1816","INCLINATION":"53.0561","REF_FRAME":"TEME","RCS_SIZE":"LARGE","NORAD_CAT_ID":"46714","DECAY_DATE":null,"EPOCH":"2023-01-25T05:21:14.923296","EPHEMERIS_TYPE":"0","MEAN_ELEMENT_THEORY":"SGP4","PERIAPSIS":"546.228","CLASSIFICATION_TYPE":"U","MEAN_MOTION":"15.06413699","MEAN_MOTION_DDOT":"0.0000000000000","PERIOD":"95.591","SITE":"AFETR","SEMIMAJOR_AXIS":"6925.307","MEAN_ANOMALY":"246.4835","ELEMENT_SET_NO":"999","LAUNCH_DATE":"2020-10-18","TIME_SYSTEM":"UTC","GP_ID":"223686880","ARG_OF_PERICENTER":"113.6297","OBJECT_TYPE":"PAYLOAD","OBJECT_ID":"2020-073AW","ECCENTRICITY":"0.00013630","FILE":"3761297","APOAPSIS":"548.115","COUNTRY_CODE":"US"},{"NORAD_CAT_ID":"46715","REF_FRAME":"TEME","RCS_SIZE":"LARGE","INCLINATION":"53.0540","OBJECT_NAME":"STARLINK-1817","CENTER_NAME":"EARTH","RA_OF_ASC_NODE":"316.9053","REV_AT_EPOCH":"12538","BSTAR":"0.00088916000000","TLE_LINE2":"2 46715  53.0540 316.9053 0001415  97.5521 262.5629 15.06419091125386","MEAN_MOTION_DOT":"0.00012994","TLE_LINE1":"1 46715U 20073AX  23025.21940386  .00012994  00000-0  88916-3 0  9990","COUNTRY_CODE":"US","FILE":"3761297","APOAPSIS":"548.135","OBJECT_TYPE":"PAYLOAD","ECCENTRICITY":"0.00014150","OBJECT_ID":"2020-073AX","TIME_SYSTEM":"UTC","GP_ID":"223685129","ARG_OF_PERICENTER":"97.5521","MEAN_ANOMALY":"262.5629","LAUNCH_DATE":"2020-10-18","ELEMENT_SET_NO":"999","SEMIMAJOR_AXIS":"6925.290","SITE":"AFETR","PERIOD":"95.591","MEAN_MOTION":"15.06419091","MEAN_MOTION_DDOT":"0.0000000000000","CLASSIFICATION_TYPE":"U","PERIAPSIS":"546.175","MEAN_ELEMENT_THEORY":"SGP4","EPHEMERIS_TYPE":"0","DECAY_DATE":null,"EPOCH":"2023-01-25T05:15:56.493504"},{"SITE":"AFETR","SEMIMAJOR_AXIS":"6925.343","ELEMENT_SET_NO":"999","LAUNCH_DATE":"2020-10-18","MEAN_ANOMALY":"260.3724","ARG_OF_PERICENTER":"99.7424","GP_ID":"223713675","TIME_SYSTEM":"UTC","ECCENTRICITY":"0.00014060","OBJECT_ID":"2020-073AY","OBJECT_TYPE":"PAYLOAD","APOAPSIS":"548.181","FILE":"3761360","COUNTRY_CODE":"US","EPOCH":"2023-01-25T19:57:43.257024","DECAY_DATE":null,"EPHEMERIS_TYPE":"0","PERIAPSIS":"546.234","MEAN_ELEMENT_THEORY":"SGP4","CLASSIFICATION_TYPE":"U","MEAN_MOTION":"15.06401919","MEAN_MOTION_DDOT":"0.0000000000000","PERIOD":"95.592","RA_OF_ASC_NODE":"329.1521","CENTER_NAME":"EARTH","OBJECT_NAME":"STARLINK-1818","INCLINATION":"53.0567","RCS_SIZE":"LARGE","REF_FRAME":"TEME","NORAD_CAT_ID":"46716","TLE_LINE1":"1 46716U 20073AY  23025.83175066  .00005207  00000-0  36816-3 0  9995","MEAN_MOTION_DOT":"0.00005207","TLE_LINE2":"2 46716  53.0567 329.1521 0001406  99.7424 260.3724 15.06401919125267","BSTAR":"0.00036816000000","REV_AT_EPOCH":"12526"},{"CLASSIFICATION_TYPE":"U","PERIAPSIS":"546.558","MEAN_ELEMENT_THEORY":"SGP4","EPHEMERIS_TYPE":"0","EPOCH":"2023-01-25T12:04:38.281440","DECAY_DATE":null,"PERIOD":"95.593","MEAN_MOTION_DDOT":"0.0000000000000","MEAN_MOTION":"15.06381741","ELEMENT_SET_NO":"999","LAUNCH_DATE":"2020-10-18","MEAN_ANOMALY":"277.1669","SEMIMAJOR_AXIS":"6925.405","SITE":"AFETR","COUNTRY_CODE":"US","APOAPSIS":"547.981","FILE":"3761297","ECCENTRICITY":"0.00010280","OBJECT_ID":"2020-073AZ","OBJECT_TYPE":"PAYLOAD","ARG_OF_PERICENTER":"82.9437","GP_ID":"223686128","TIME_SYSTEM":"UTC","TLE_LINE1":"1 46717U 20073AZ  23025.50322085  .00018735  00000-0  12739-2 0  9992","REV_AT_EPOCH":"12542","BSTAR":"0.00127390000000","MEAN_MOTION_DOT":"0.00018735","TLE_LINE2":"2 46717  53.0541 315.6309 0001028  82.9437 277.1669 15.06381741125424","OBJECT_NAME":"STARLINK-1820","CENTER_NAME":"EARTH","RA_OF_ASC_NODE":"315.6309","NORAD_CAT_ID":"46717","RCS_SIZE":"LARGE","REF_FRAME":"TEME","INCLINATION":"53.0541"},{"EPOCH":"2023-01-25T13:02:19.632192","DECAY_DATE":null,"EPHEMERIS_TYPE":"0","PERIAPSIS":"546.226","MEAN_ELEMENT_THEORY":"SGP4","CLASSIFICATION_TYPE":"U","MEAN_MOTION":"15.06406505","MEAN_MOTION_DDOT":"0.0000000000000","PERIOD":"95.592","SITE":"AFETR","SEMIMAJOR_AXIS":"6925.329","ELEMENT_SET_NO":"999","LAUNCH_DATE":"2020-10-18","MEAN_ANOMALY":"279.2077","GP_ID":"223658969","ARG_OF_PERICENTER":"80.9070","TIME_SYSTEM":"UTC","OBJECT_ID":"2020-073BA","ECCENTRICITY":"0.00013970","OBJECT_TYPE":"PAYLOAD","APOAPSIS":"548.161","FILE":"3760952","COUNTRY_CODE":"US","TLE_LINE1":"1 46718U 20073BA  23025.54328278  .00006826  00000-0  47661-3 0  9998","MEAN_MOTION_DOT":"0.00006826","TLE_LINE2":"2 46718  53.0536 330.4420 0001397  80.9070 279.2077 15.06406505125701","BSTAR":"0.00047661000000","REV_AT_EPOCH":"12570","RA_OF_ASC_NODE":"330.4420","CENTER_NAME":"EARTH","OBJECT_NAME":"STARLINK-1821","INCLINATION":"53.0536","RCS_SIZE":"LARGE","REF_FRAME":"TEME","NORAD_CAT_ID":"46718"},{"EPOCH":"2023-01-25T11:03:35.789760","DECAY_DATE":null,"EPHEMERIS_TYPE":"0","PERIAPSIS":"546.179","MEAN_ELEMENT_THEORY":"SGP4","CLASSIFICATION_TYPE":"U","MEAN_MOTION":"15.06399511","MEAN_MOTION_DDOT":"0.0000000000000","PERIOD":"95.592","SITE":"AFETR","SEMIMAJOR_AXIS":"6925.350","ELEMENT_SET_NO":"999","LAUNCH_DATE":"2020-10-18","MEAN_ANOMALY":"285.7723","GP_ID":"223685629","ARG_OF_PERICENTER":"74.3431","TIME_SYSTEM":"UTC","ECCENTRICITY":"0.00014960","OBJECT_ID":"2020-073BB","OBJECT_TYPE":"PAYLOAD","APOAPSIS":"548.251","FILE":"3761297","COUNTRY_CODE":"US","TLE_LINE1":"1 46719U 20073BB  23025.46083090  .00001260  00000-0  10345-3 0  9996","MEAN_MOTION_DOT":"0.00001260","TLE_LINE2":"2 46719  53.0529 295.8221 0001496  74.3431 285.7723 15.06399511125703","BSTAR":"0.00010345000000","REV_AT_EPOCH":"12570","RA_OF_ASC_NODE":"295.8221","CENTER_NAME":"EARTH","OBJECT_NAME":"STARLINK-1822","INCLINATION":"53.0529","RCS_SIZE":"LARGE","REF_FRAME":"TEME","NORAD_CAT_ID":"46719"},{"PERIOD":"95.592","MEAN_MOTION_DDOT":"0.0000000000000","MEAN_MOTION":"15.06400396","PERIAPSIS":"546.240","MEAN_ELEMENT_THEORY":"SGP4","CLASSIFICATION_TYPE":"U","EPOCH":"2023-01-25T13:40:51.787776","DECAY_DATE":null,"EPHEMERIS_TYPE":"0","APOAPSIS":"548.185","FILE":"3761297","COUNTRY_CODE":"US","GP_ID":"223685877","ARG_OF_PERICENTER":"88.1691","TIME_SYSTEM":"UTC","OBJECT_ID":"2020-073BE","ECCENTRICITY":"0.00014040","OBJECT_TYPE":"PAYLOAD","SEMIMAJOR_AXIS":"6925.347","ELEMENT_SET_NO":"999","LAUNCH_DATE":"2020-10-18","MEAN_ANOMALY":"271.9458","SITE":"AFETR","REV_AT_EPOCH":"12522","MEAN_MOTION_DOT":"0.00012311","TLE_LINE2":"2 46722  53.0532 330.3336 0001404  88.1691 271.9458 15.06400396125226","BSTAR":"0.00084391000000","TLE_LINE1":"1 46722U 20073BE  23025.57004384  .00012311  00000-0  84391-3 0  9992","RCS_SIZE":"LARGE","REF_FRAME":"TEME","NORAD_CAT_ID":"46722","INCLINATION":"53.0532","OBJECT_NAME":"STARLINK-1825","RA_OF_ASC_NODE":"330.3336","CENTER_NAME":"EARTH"},{"MEAN_MOTION_DOT":"-0.00000915","TLE_LINE2":"2 46723  53.0515 290.8155 0002043  75.1158 285.0057 15.06402704125777","BSTAR":"-0.00004253000000","REV_AT_EPOCH":"12577","TLE_LINE1":"1 46723U 20073BF  23025.46313070 -.00000915  00000-0 -42530-4 0  9995","INCLINATION":"53.0515","RCS_SIZE":"LARGE","REF_FRAME":"TEME","NORAD_CAT_ID":"46723","RA_OF_ASC_NODE":"290.8155","CENTER_NAME":"EARTH","OBJECT_NAME":"STARLINK-1826","MEAN_MOTION":"15.06402704","MEAN_MOTION_DDOT":"0.0000000000000","PERIOD":"95.592","EPOCH":"2023-01-25T11:06:54.492480","DECAY_DATE":null,"EPHEMERIS_TYPE":"0","PERIAPSIS":"545.790","MEAN_ELEMENT_THEORY":"SGP4","CLASSIFICATION_TYPE":"U","GP_ID":"223686629","ARG_OF_PERICENTER":"75.1158","TIME_SYSTEM":"UTC","ECCENTRICITY":"0.00020430","OBJECT_ID":"2020-073BF","OBJECT_TYPE":"PAYLOAD","APOAPSIS":"548.620","FILE":"3761297","COUNTRY_CODE":"US","SITE":"AFETR","SEMIMAJOR_AXIS":"6925.340","LAUNCH_DATE":"2020-10-18","ELEMENT_SET_NO":"999","MEAN_ANOMALY":"285.0057"},{"INCLINATION":"53.0545","RCS_SIZE":"LARGE","REF_FRAME":"TEME","NORAD_CAT_ID":"46725","RA_OF_ASC_NODE":"330.4984","CENTER_NAME":"EARTH","OBJECT_NAME":"STARLINK-1828","MEAN_MOTION_DOT":"0.00009817","TLE_LINE2":"2 46725  53.0545 330.4984 0001211 102.2914 257.8211 15.06409425125700","BSTAR":"0.00067683000000","REV_AT_EPOCH":"12570","TLE_LINE1":"1 46725U 20073BH  23025.53317216  .00009817  00000-0  67683-3 0  9994","GP_ID":"223658965","ARG_OF_PERICENTER":"102.2914","TIME_SYSTEM":"UTC","ECCENTRICITY":"0.00012110","OBJECT_ID":"2020-073BH","OBJECT_TYPE":"PAYLOAD","APOAPSIS":"548.023","FILE":"3760952","COUNTRY_CODE":"US","SITE":"AFETR","SEMIMAJOR_AXIS":"6925.320","ELEMENT_SET_NO":"999","LAUNCH_DATE":"2020-10-18","MEAN_ANOMALY":"257.8211","MEAN_MOTION_DDOT":"0.0000000000000","MEAN_MOTION":"15.06409425","PERIOD":"95.592","EPOCH":"2023-01-25T12:47:46.074624","DECAY_DATE":null,"EPHEMERIS_TYPE":"0","PERIAPSIS":"546.346","MEAN_ELEMENT_THEORY":"SGP4","CLASSIFICATION_TYPE":"U"}];
